IRIDIUM 119             
1 42959U 17061E   25151.56268633  .00000250  00000+0  82288-4 0  9995
2 42959  86.4002 184.7259 0002371  98.8986 261.2479 14.34220338400115
IRIDIUM 107             
1 42960U 17061F   25151.16309033  .00000141  00000+0  43388-4 0  9990
2 42960  86.4004 184.9117 0002797  96.3129 263.8385 14.34216269400075
IRIDIUM 132             
1 42961U 17061G   25150.61128047  .00000123  00000+0  36722-4 0  9998
2 42961  86.4005 185.1245 0002472  93.3046 266.8432 14.34216903399985
IRIDIUM 136             
1 42962U 17061H   25151.54998552  .00000016  00000+0 -14624-5 0  9998
2 42962  86.4001 184.7372 0002441  97.7395 262.4078 14.34217794400136
IRIDIUM 139             
1 42963U 17061J   25151.48655707  .00000013  00000+0 -25180-5 0  9990
2 42963  86.4005 184.8195 0002618  94.2371 265.9124 14.34216352400136
IRIDIUM 125             
1 42964U 17061K   25151.19480042 -.00000004  00000+0 -86602-5 0  9994
2 42964  86.4010 184.9949 0002520 106.4110 253.7363 14.34217608400102
IRIDIUM 135             
1 43070U 17083A   25151.16892566  .00000035  00000+0  54934-5 0  9997
2 43070  86.3953 121.7322 0002200  81.3208 278.8237 14.34217642389397
IRIDIUM 138             
1 43071U 17083B   25151.47336976  .00000031  00000+0  38355-5 0  9995
2 43071  86.3942 121.2779 0002028  99.3472 260.7953 14.34217674389421
